start=new Date('2022-02-18T00:00:00.000Z').valueOf();
sats=[{"ARG_OF_PERICENTER":"49.8912","OBJECT_ID":"2022-001AN","BSTAR":"-0.01125300000000","MEAN_MOTION_DOT":"-0.00656011","APOAPSIS":"409.245","INCLINATION":"53.2176","GP_ID":"196244980","MEAN_MOTION":"15.52916317","TLE_LINE1":"1 50839U 22001AN  22048.91667824 -.00656011  00000-0 -11253-1 0  9993","LAUNCH_DATE":"2022-01-06","EPOCH":"2022-02-17T22:00:00.999936","PERIAPSIS":"407.192","OBJECT_NAME":"STARLINK-3320","MEAN_ANOMALY":"203.0390","CLASSIFICATION_TYPE":"U","NORAD_CAT_ID":"50839","SITE":"AFETR","EPHEMERIS_TYPE":"0","RCS_SIZE":"LARGE","PERIOD":"92.729","MEAN_ELEMENT_THEORY":"SGP4","SEMIMAJOR_AXIS":"6786.353","ECCENTRICITY":"0.00015120","REF_FRAME":"TEME","COUNTRY_CODE":"US","CENTER_NAME":"EARTH","ELEMENT_SET_NO":"999","FILE":"3305402","TIME_SYSTEM":"UTC","MEAN_MOTION_DDOT":"0.0000000000000","RA_OF_ASC_NODE":"352.0989","OBJECT_TYPE":"PAYLOAD","TLE_LINE2":"2 50839  53.2176 352.0989 0001512  49.8912 203.0390 15.52916317  3706","DECAY_DATE":null,"REV_AT_EPOCH":"370"},{"OBJECT_NAME":"STARLINK-3295","PERIAPSIS":"406.701","EPOCH":"2022-02-17T22:00:00.999936","NORAD_CAT_ID":"50840","CLASSIFICATION_TYPE":"U","MEAN_ANOMALY":"220.2533","PERIOD":"92.722","RCS_SIZE":"LARGE","EPHEMERIS_TYPE":"0","SITE":"AFETR","SEMIMAJOR_AXIS":"6786.012","MEAN_ELEMENT_THEORY":"SGP4","OBJECT_ID":"2022-001AP","ARG_OF_PERICENTER":"39.4015","BSTAR":"-0.01120700000000","MEAN_MOTION_DOT":"-0.00656146","GP_ID":"196245731","APOAPSIS":"409.053","INCLINATION":"53.2176","LAUNCH_DATE":"2022-01-06","TLE_LINE1":"1 50840U 22001AP  22048.91667824 -.00656146  00000-0 -11207-1 0  9993","MEAN_MOTION":"15.53033346","RA_OF_ASC_NODE":"352.0982","MEAN_MOTION_DDOT":"0.0000000000000","OBJECT_TYPE":"PAYLOAD","TLE_LINE2":"2 50840  53.2176 352.0982 0001733  39.4015 220.2533 15.53033346  3708","REV_AT_EPOCH":"370","DECAY_DATE":null,"REF_FRAME":"TEME","ECCENTRICITY":"0.00017330","CENTER_NAME":"EARTH","COUNTRY_CODE":"US","FILE":"3305402","ELEMENT_SET_NO":"999","TIME_SYSTEM":"UTC"},{"MEAN_MOTION_DOT":"-0.00655675","ARG_OF_PERICENTER":"36.9772","OBJECT_ID":"2022-001AQ","BSTAR":"-0.01134200000000","MEAN_MOTION":"15.52682244","TLE_LINE1":"1 50841U 22001AQ  22048.91667824 -.00655675  00000-0 -11342-1 0  9990","LAUNCH_DATE":"2022-01-06","APOAPSIS":"410.133","INCLINATION":"53.2176","GP_ID":"196245982","MEAN_ANOMALY":"202.3982","CLASSIFICATION_TYPE":"U","NORAD_CAT_ID":"50841","EPOCH":"2022-02-17T22:00:00.999936","PERIAPSIS":"407.668","OBJECT_NAME":"STARLINK-3300","SEMIMAJOR_AXIS":"6787.035","MEAN_ELEMENT_THEORY":"SGP4","SITE":"AFETR","EPHEMERIS_TYPE":"0","RCS_SIZE":"LARGE","PERIOD":"92.743","COUNTRY_CODE":"US","CENTER_NAME":"EARTH","ECCENTRICITY":"0.00018160","REF_FRAME":"TEME","TIME_SYSTEM":"UTC","ELEMENT_SET_NO":"999","FILE":"3305402","MEAN_MOTION_DDOT":"0.0000000000000","RA_OF_ASC_NODE":"352.0999","DECAY_DATE":null,"TLE_LINE2":"2 50841  53.2176 352.0999 0001816  36.9772 202.3982 15.52682244  3706","REV_AT_EPOCH":"370","OBJECT_TYPE":"PAYLOAD"},{"EPOCH":"2022-02-17T22:00:00.999936","PERIAPSIS":"406.368","OBJECT_NAME":"STARLINK-3302","MEAN_ANOMALY":"227.0027","CLASSIFICATION_TYPE":"U","NORAD_CAT_ID":"50842","SITE":"AFETR","EPHEMERIS_TYPE":"0","RCS_SIZE":"LARGE","PERIOD":"92.715","SEMIMAJOR_AXIS":"6785.671","MEAN_ELEMENT_THEORY":"SGP4","BSTAR":"-0.01116700000000","ARG_OF_PERICENTER":"39.3415","OBJECT_ID":"2022-001AR","MEAN_MOTION_DOT":"-0.00656566","INCLINATION":"53.2176","APOAPSIS":"408.704","GP_ID":"196246232","TLE_LINE1":"1 50842U 22001AR  22048.91667824 -.00656566  00000-0 -11167-1 0  9996","MEAN_MOTION":"15.53150529","LAUNCH_DATE":"2022-01-06","MEAN_MOTION_DDOT":"0.0000000000000","RA_OF_ASC_NODE":"352.0975","OBJECT_TYPE":"PAYLOAD","TLE_LINE2":"2 50842  53.2176 352.0975 0001721  39.3415 227.0027 15.53150529  3708","REV_AT_EPOCH":"370","DECAY_DATE":null,"ECCENTRICITY":"0.00017210","REF_FRAME":"TEME","COUNTRY_CODE":"US","CENTER_NAME":"EARTH","FILE":"3305402","ELEMENT_SET_NO":"999","TIME_SYSTEM":"UTC"},{"ELEMENT_SET_NO":"999","FILE":"3305402","TIME_SYSTEM":"UTC","REF_FRAME":"TEME","ECCENTRICITY":"0.00019610","CENTER_NAME":"EARTH","COUNTRY_CODE":"US","OBJECT_TYPE":"PAYLOAD","TLE_LINE2":"2 50843  53.2177 352.1005 0001961  32.9746 192.7057 15.52448125  3709","DECAY_DATE":null,"REV_AT_EPOCH":"370","MEAN_MOTION_DDOT":"0.0000000000000","RA_OF_ASC_NODE":"352.1005","APOAPSIS":"410.914","INCLINATION":"53.2177","GP_ID":"196245481","LAUNCH_DATE":"2022-01-06","MEAN_MOTION":"15.52448125","TLE_LINE1":"1 50843U 22001AS  22048.91667824 -.00655285  00000-0 -11431-1 0  9998","BSTAR":"-0.01143100000000","ARG_OF_PERICENTER":"32.9746","OBJECT_ID":"2022-001AS","MEAN_MOTION_DOT":"-0.00655285","SITE":"AFETR","PERIOD":"92.757","EPHEMERIS_TYPE":"0","RCS_SIZE":"LARGE","MEAN_ELEMENT_THEORY":"SGP4","SEMIMAJOR_AXIS":"6787.718","EPOCH":"2022-02-17T22:00:00.999936","PERIAPSIS":"408.252","OBJECT_NAME":"STARLINK-3325","CLASSIFICATION_TYPE":"U","MEAN_ANOMALY":"192.7057","NORAD_CAT_ID":"50843"},{"LAUNCH_DATE":"2022-01-06","TLE_LINE1":"1 50844U 22001AT  22048.91667824 -.00657269  00000-0 -11038-1 0  9996","MEAN_MOTION":"15.53501742","APOAPSIS":"407.564","INCLINATION":"53.2176","GP_ID":"196245231","MEAN_MOTION_DOT":"-0.00657269","BSTAR":"-0.01103800000000","OBJECT_ID":"2022-001AT","ARG_OF_PERICENTER":"44.5471","SEMIMAJOR_AXIS":"6784.648","MEAN_ELEMENT_THEORY":"SGP4","SITE":"AFETR","PERIOD":"92.694","RCS_SIZE":"LARGE","EPHEMERIS_TYPE":"0","CLASSIFICATION_TYPE":"U","MEAN_ANOMALY":"241.6548","NORAD_CAT_ID":"50844","EPOCH":"2022-02-17T22:00:00.999936","PERIAPSIS":"405.462","OBJECT_NAME":"STARLINK-3326","TIME_SYSTEM":"UTC","FILE":"3305402","ELEMENT_SET_NO":"999","CENTER_NAME":"EARTH","COUNTRY_CODE":"US","REF_FRAME":"TEME","ECCENTRICITY":"0.00015490","TLE_LINE2":"2 50844  53.2176 352.0951 0001549  44.5471 241.6548 15.53501742  3709","DECAY_DATE":null,"REV_AT_EPOCH":"370","OBJECT_TYPE":"PAYLOAD","MEAN_MOTION_DDOT":"0.0000000000000","RA_OF_ASC_NODE":"352.0951"},{"NORAD_CAT_ID":"50845","MEAN_ANOMALY":"222.7315","CLASSIFICATION_TYPE":"U","OBJECT_NAME":"STARLINK-3230","EPOCH":"2022-02-17T22:00:00.999936","PERIAPSIS":"403.481","SEMIMAJOR_AXIS":"6782.404","MEAN_ELEMENT_THEORY":"SGP4","RCS_SIZE":"LARGE","EPHEMERIS_TYPE":"0","PERIOD":"92.648","SITE":"AFETR","MEAN_MOTION_DOT":"-0.00657762","OBJECT_ID":"2022-001AU","BSTAR":"-0.01074000000000","ARG_OF_PERICENTER":"94.1297","TLE_LINE1":"1 50845U 22001AU  22048.91667824 -.00657762  00000-0 -10740-1 0  9994","MEAN_MOTION":"15.54272938","LAUNCH_DATE":"2022-01-06","GP_ID":"196246483","APOAPSIS":"405.056","INCLINATION":"53.2176","RA_OF_ASC_NODE":"352.1044","MEAN_MOTION_DDOT":"0.0000000000000","TLE_LINE2":"2 50845  53.2176 352.1044 0001161  94.1297 222.7315 15.54272938  3706","DECAY_DATE":null,"REV_AT_EPOCH":"370","OBJECT_TYPE":"PAYLOAD","COUNTRY_CODE":"US","CENTER_NAME":"EARTH","ECCENTRICITY":"0.00011610","REF_FRAME":"TEME","TIME_SYSTEM":"UTC","ELEMENT_SET_NO":"999","FILE":"3305402"},{"MEAN_MOTION_DDOT":"0.0000000000000","RA_OF_ASC_NODE":"352.0941","TLE_LINE2":"2 50846  53.2176 352.0941 0001561  43.3945 249.3565 15.53618738  3705","REV_AT_EPOCH":"370","DECAY_DATE":null,"OBJECT_TYPE":"PAYLOAD","CENTER_NAME":"EARTH","COUNTRY_CODE":"US","REF_FRAME":"TEME","ECCENTRICITY":"0.00015610","TIME_SYSTEM":"UTC","ELEMENT_SET_NO":"999","FILE":"3305402","CLASSIFICATION_TYPE":"U","MEAN_ANOMALY":"249.3565","NORAD_CAT_ID":"50846","PERIAPSIS":"405.114","EPOCH":"2022-02-17T22:00:00.999936","OBJECT_NAME":"STARLINK-3308","MEAN_ELEMENT_THEORY":"SGP4","SEMIMAJOR_AXIS":"6784.308","SITE":"AFETR","PERIOD":"92.687","EPHEMERIS_TYPE":"0","RCS_SIZE":"LARGE","MEAN_MOTION_DOT":"-0.00657389","ARG_OF_PERICENTER":"43.3945","OBJECT_ID":"2022-001AV","BSTAR":"-0.01099300000000","LAUNCH_DATE":"2022-01-06","TLE_LINE1":"1 50846U 22001AV  22048.91667824 -.00657389  00000-0 -10993-1 0  9990","MEAN_MOTION":"15.53618738","APOAPSIS":"407.232","INCLINATION":"53.2176","GP_ID":"196246733"},{"LAUNCH_DATE":"2022-01-06","MEAN_MOTION":"15.52799195","TLE_LINE1":"1 50847U 22001AW  22048.91667824 -.00655697  00000-0 -11295-1 0  9997","GP_ID":"196244981","APOAPSIS":"409.634","INCLINATION":"53.2176","MEAN_MOTION_DOT":"-0.00655697","BSTAR":"-0.01129500000000","ARG_OF_PERICENTER":"46.9022","OBJECT_ID":"2022-001AW","SEMIMAJOR_AXIS":"6786.695","MEAN_ELEMENT_THEORY":"SGP4","PERIOD":"92.736","EPHEMERIS_TYPE":"0","RCS_SIZE":"LARGE","SITE":"AFETR","NORAD_CAT_ID":"50847","CLASSIFICATION_TYPE":"U","MEAN_ANOMALY":"199.2682","OBJECT_NAME":"STARLINK-3319","PERIAPSIS":"407.485","EPOCH":"2022-02-17T22:00:00.999936","TIME_SYSTEM":"UTC","ELEMENT_SET_NO":"999","FILE":"3305402","CENTER_NAME":"EARTH","COUNTRY_CODE":"US","REF_FRAME":"TEME","ECCENTRICITY":"0.00015830","DECAY_DATE":null,"TLE_LINE2":"2 50847  53.2176 352.0994 0001583  46.9022 199.2682 15.52799195  3702","REV_AT_EPOCH":"370","OBJECT_TYPE":"PAYLOAD","RA_OF_ASC_NODE":"352.0994","MEAN_MOTION_DDOT":"0.0000000000000"},{"CENTER_NAME":"EARTH","COUNTRY_CODE":"US","REF_FRAME":"TEME","ECCENTRICITY":"0.00014780","TIME_SYSTEM":"UTC","FILE":"3305402","ELEMENT_SET_NO":"999","MEAN_MOTION_DDOT":"0.0000000000000","RA_OF_ASC_NODE":"352.0930","TLE_LINE2":"2 50848  53.2176 352.0930 0001478  46.7454 252.5193 15.53735786  3700","REV_AT_EPOCH":"370","DECAY_DATE":null,"OBJECT_TYPE":"PAYLOAD","MEAN_MOTION_DOT":"-0.00657542","BSTAR":"-0.01094900000000","OBJECT_ID":"2022-001AX","ARG_OF_PERICENTER":"46.7454","LAUNCH_DATE":"2022-01-06","TLE_LINE1":"1 50848U 22001AX  22048.91667824 -.00657542  00000-0 -10949-1 0  9994","MEAN_MOTION":"15.53735786","APOAPSIS":"406.835","INCLINATION":"53.2176","GP_ID":"196245732","CLASSIFICATION_TYPE":"U","MEAN_ANOMALY":"252.5193","NORAD_CAT_ID":"50848","EPOCH":"2022-02-17T22:00:00.999936","PERIAPSIS":"404.829","OBJECT_NAME":"STARLINK-3315","MEAN_ELEMENT_THEORY":"SGP4","SEMIMAJOR_AXIS":"6783.967","SITE":"AFETR","PERIOD":"92.680","RCS_SIZE":"LARGE","EPHEMERIS_TYPE":"0"}];
